[{"OBJECT_NAME":"ION SCV-010","OBJECT_ID":"2023-054Q","EPOCH":"2026-03-09T16:02:35.904768","MEAN_MOTION":15.25210322,"ECCENTRICITY":0.00127052,"INCLINATION":97.3904,"RA_OF_ASC_NODE":319.4312,"ARG_OF_PERICENTER":188.785,"MEAN_ANOMALY":171.3168,"EPHEMERIS_TYPE":0,"CLASSIFICATION_TYPE":"U","NORAD_CAT_ID":56192,"ELEMENT_SET_NO":999,"REV_AT_EPOCH":16102,"BSTAR":0.00025045068,"MEAN_MOTION_DOT":6.231e-5,"MEAN_MOTION_DDOT":0},{"OBJECT_NAME":"STARLINK-31723","OBJECT_ID":"2024-074V","EPOCH":"2026-03-09T03:50:56.291136","MEAN_MOTION":15.27587631,"ECCENTRICITY":0.00013702,"INCLINATION":43.0038,"RA_OF_ASC_NODE":346.4895,"ARG_OF_PERICENTER":262.8323,"MEAN_ANOMALY":97.2372,"EPHEMERIS_TYPE":0,"CLASSIFICATION_TYPE":"U","NORAD_CAT_ID":59553,"ELEMENT_SET_NO":999,"REV_AT_EPOCH":10593,"BSTAR":-5.2543731e-5,"MEAN_MOTION_DOT":-1.708e-5,"MEAN_MOTION_DDOT":0}]
